{"type":"FeatureCollection","features":[{"type":"Feature","properties":{"name":"Mountain Park Library"},"geometry":{"type":"Point","coordinates":[-84.120356,33.8472935]}},{"type":"Feature","properties":{"name":"GCPL - Peachtree Corners Branch"},"geometry":{"type":"Point","coordinates":[-84.224284,33.9695157]}},{"type":"Feature","properties":{"name":"White County Public Library-Helen Branch"},"geometry":{"type":"Point","coordinates":[-83.7310083,34.7033192]}},{"type":"Feature","properties":{"name":"White County Public Library-Cleveland Branch"},"geometry":{"type":"Point","coordinates":[-83.7647186,34.5983292]}},{"type":"Feature","properties":{"name":"Jefferson Public Library"},"geometry":{"type":"Point","coordinates":[-83.583103,34.1286526]}},{"type":"Feature","properties":{"name":"Gwinnett County Public Library"},"geometry":{"type":"Point","coordinates":[-84.0000876,34.1105427]}},{"type":"Feature","properties":{"name":"Gwinnett Public Library - Suwanee Branch"},"geometry":{"type":"Point","coordinates":[-84.0672267,34.057598]}},{"type":"Feature","properties":{"name":"Commerce Public Library"},"geometry":{"type":"Point","coordinates":[-83.4526029,34.1995664]}},{"type":"Feature","properties":{"name":"Hall County Library Downtown"},"geometry":{"type":"Point","coordinates":[-83.8284974,34.3001133]}},{"type":"Feature","properties":{"name":"R.T. Jones Memorial Library"},"geometry":{"type":"Point","coordinates":[-84.4686255,34.2379904]}},{"type":"Feature","properties":{"name":"Cornelia-Habersham County Library"},"geometry":{"type":"Point","coordinates":[-83.5288364,34.5139559]}},{"type":"Feature","properties":{"name":"Cofer Library"},"geometry":{"type":"Point","coordinates":[-83.7487628,34.5974011]}},{"type":"Feature","properties":{"name":"Gwinnett County Public Library, Grayson Branch"},"geometry":{"type":"Point","coordinates":[-83.9636303,33.8885435]}},{"type":"Feature","properties":{"name":"Lumpkin County Library"},"geometry":{"type":"Point","coordinates":[-83.9771181,34.530004]}},{"type":"Feature","properties":{"name":"Union County Public Library"},"geometry":{"type":"Point","coordinates":[-83.9621184,34.8722348]}},{"type":"Feature","properties":{"name":"Dawson County Library"},"geometry":{"type":"Point","coordinates":[-84.1083804,34.4187909]}},{"type":"Feature","properties":{"name":"Auburn Public Library"},"geometry":{"type":"Point","coordinates":[-83.8265211,34.014121]}},{"type":"Feature","properties":{"name":"Towns County Public Library"},"geometry":{"type":"Point","coordinates":[-83.7567076,34.9468237]}},{"type":"Feature","properties":{"name":"Mountain Regional Library"},"geometry":{"type":"Point","coordinates":[-83.8492665,34.9380641]}},{"type":"Feature","properties":{"name":"Ball Ground Public Library"},"geometry":{"type":"Point","coordinates":[-84.3782696,34.3405043]}},{"type":"Feature","properties":{"name":"Dacula Public Library"},"geometry":{"type":"Point","coordinates":[-83.8990933,33.9941907]}},{"type":"Feature","properties":{"name":"Pickens County Library"},"geometry":{"type":"Point","coordinates":[-84.4214185,34.4744752]}},{"type":"Feature","properties":{"name":"Hall County Library Spout Springs"},"geometry":{"type":"Point","coordinates":[-83.8943479,34.1522708]}},{"type":"Feature","properties":{"name":"Sharon Forks Public Library"},"geometry":{"type":"Point","coordinates":[-84.1565226,34.1188445]}},{"type":"Feature","properties":{"name":"Pendergrass Library and City Hall"},"geometry":{"type":"Point","coordinates":[-83.679266,34.1628971]}},{"type":"Feature","properties":{"name":"Pendergrass Library"},"geometry":{"type":"Point","coordinates":[-83.6783864,34.1618521]}},{"type":"Feature","properties":{"name":"Lilburn Branch"},"geometry":{"type":"Point","coordinates":[-84.138957,33.8921376]}},{"type":"Feature","properties":{"name":"Statham Public Library"},"geometry":{"type":"Point","coordinates":[-83.5962632,33.9648663]}},{"type":"Feature","properties":{"name":"Talmo Public Library"},"geometry":{"type":"Point","coordinates":[-83.7218055,34.1842037]}},{"type":"Feature","properties":{"name":"Gwinnett County Public Library - Duluth Branch"},"geometry":{"type":"Point","coordinates":[-84.1472158,34.0005918]}},{"type":"Feature","properties":{"name":"Gwinnett County Public Library"},"geometry":{"type":"Point","coordinates":[-83.9034845,34.069832]}},{"type":"Feature","properties":{"name":"Collins Hill Library"},"geometry":{"type":"Point","coordinates":[-84.0023082,34.0154755]}},{"type":"Feature","properties":{"name":"Gilmer County Library"},"geometry":{"type":"Point","coordinates":[-84.5059103,34.6855457]}},{"type":"Feature","properties":{"name":"Blackshear Place Library"},"geometry":{"type":"Point","coordinates":[-83.858145,34.2274017]}},{"type":"Feature","properties":{"name":"Braselton Library"},"geometry":{"type":"Point","coordinates":[-83.7651843,34.1086693]}},{"type":"Feature","properties":{"name":"Gwinnett County Public Library - Lawrenceville Branch"},"geometry":{"type":"Point","coordinates":[-84.0147454,33.9424148]}},{"type":"Feature","properties":{"name":"Hickory Flat Public Library"},"geometry":{"type":"Point","coordinates":[-84.421451,34.170437]}},{"type":"Feature","properties":{"name":"Woodstock Public Library"},"geometry":{"type":"Point","coordinates":[-84.5144305,34.1127145]}},{"type":"Feature","properties":{"name":"Rose Creek Public Library"},"geometry":{"type":"Point","coordinates":[-84.572598,34.129078]}},{"type":"Feature","properties":{"name":"Gwinnett County Public Library Five Forks Branch"},"geometry":{"type":"Point","coordinates":[-84.0549357,33.893288]}},{"type":"Feature","properties":{"name":"Winder Public Library"},"geometry":{"type":"Point","coordinates":[-83.7231375,33.998175]}},{"type":"Feature","properties":{"name":"Post Road Library"},"geometry":{"type":"Point","coordinates":[-84.2208319,34.2052473]}},{"type":"Feature","properties":{"name":"Maysville Public Library"},"geometry":{"type":"Point","coordinates":[-83.5630515,34.2540595]}},{"type":"Feature","properties":{"name":"Banks County Public Library"},"geometry":{"type":"Point","coordinates":[-83.4786173,34.3125463]}},{"type":"Feature","properties":{"name":"Banks County Public Library"},"geometry":{"type":"Point","coordinates":[-83.5092086,34.329763]}},{"type":"Feature","properties":{"name":"Gwinnett County Public Library Elizabeth Williams Branch"},"geometry":{"type":"Point","coordinates":[-84.0160536,33.8601439]}},{"type":"Feature","properties":{"name":"Hampton Park Library"},"geometry":{"type":"Point","coordinates":[-84.0675948,34.3052813]}},{"type":"Feature","properties":{"name":"Murrayville Library"},"geometry":{"type":"Point","coordinates":[-83.8911784,34.4016931]}},{"type":"Feature","properties":{"name":"Clarkesville-Habersham County Library"},"geometry":{"type":"Point","coordinates":[-83.5244744,34.6151751]}},{"type":"Feature","properties":{"name":"Centerville Branch Library"},"geometry":{"type":"Point","coordinates":[-84.0492775,33.8167712]}},{"type":"Feature","properties":{"name":"Fannin County Public Library"},"geometry":{"type":"Point","coordinates":[-84.3270089,34.8641217]}},{"type":"Feature","properties":{"name":"Harold S. Swindle Public Library"},"geometry":{"type":"Point","coordinates":[-83.4344249,34.1095702]}},{"type":"Feature","properties":{"name":"Gwinnett County Public Library Norcross Branch"},"geometry":{"type":"Point","coordinates":[-84.2099818,33.9407042]}}]}