{"type":"FeatureCollection","features":[{"type":"Feature","geometry":{"type":"MultiPolygon","coordinates":[[[[-83.10078,34.98995],[-83.10857,35.00067],[-83.72736,34.98763],[-83.75056,34.97243],[-83.74634,34.96212],[-83.75407,34.95078],[-83.73021,34.92475],[-83.71084,34.92019],[-83.71053,34.9062],[-83.7224,34.90307],[-83.7316,34.92185],[-83.76359,34.93567],[-83.76833,34.96122],[-83.79782,34.97295],[-83.84511,34.96332],[-83.84889,34.9306],[-83.86345,34.9141],[-83.86595,34.92714],[-83.8519,34.95407],[-83.89399,34.98712],[-84.12944,34.98755],[-84.17901,34.95],[-84.16113,34.92702],[-84.12542,34.90884],[-84.10814,34.88785],[-84.11165,34.87537],[-84.18776,34.88743],[-84.24376,34.87523],[-84.27297,34.88731],[-84.28651,34.87334],[-84.31262,34.87309],[-84.3285,34.84736],[-84.34361,34.85523],[-84.32949,34.87325],[-84.34019,34.87359],[-84.3561,34.89486],[-84.37361,34.90376],[-84.38076,34.9421],[-84.36751,34.95741],[-84.38291,34.98803],[-84.7291,34.98808],[-84.74781,34.93431],[-84.753,34.86801],[-84.73287,34.85547],[-84.72435,34.83197],[-84.69606,34.81923],[-84.69338,34.80324],[-84.71939,34.79926],[-84.73558,34.7876],[-84.75521,34.76931],[-84.75383,34.75276],[-84.71881,34.70509],[-84.7089,34.70214],[-84.70519,34.68781],[-84.69378,34.69044],[-84.65947,34.665],[-84.63532,34.66984],[-84.62313,34.68052],[-84.60922,34.69424],[-84.61273,34.70925],[-84.56774,34.72638],[-84.55975,34.7558],[-84.55064,34.74805],[-84.53064,34.74904],[-84.48198,34.70044],[-84.47714,34.68627],[-84.45948,34.68506],[-84.44507,34.65947],[-84.40267,34.63371],[-84.38246,34.62525],[-84.34538,34.64651],[-84.33349,34.64185],[-84.32247,34.60722],[-84.32677,34.59554],[-84.30838,34.59027],[-84.30229,34.57723],[-84.30922,34.56719],[-84.29265,34.55393],[-84.2647,34.53883],[-84.2541,34.55492],[-84.23475,34.55121],[-84.20466,34.53384],[-84.17567,34.5292],[-84.15129,34.5495],[-84.08803,34.54741],[-84.0741,34.56033],[-84.06532,34.55095],[-84.06467,34.57049],[-84.03496,34.57036],[-84.03932,34.59534],[-83.97014,34.5952],[-83.95668,34.59092],[-83.9567,34.58006],[-83.9344,34.58159],[-83.92013,34.60509],[-83.92267,34.62254],[-83.93904,34.62819],[-83.93378,34.6352],[-83.91788,34.63245],[-83.90653,34.65149],[-83.84111,34.65156],[-83.82634,34.63493],[-83.79804,34.63844],[-83.79434,34.65628],[-83.76072,34.65919],[-83.76058,34.6686],[-83.7507,34.66832],[-83.74818,34.71173],[-83.70415,34.72957],[-83.69369,34.71274],[-83.67376,34.70693],[-83.66751,34.69549],[-83.63949,34.70708],[-83.63214,34.7208],[-83.61434,34.72044],[-83.616,34.68927],[-83.60225,34.66834],[-83.50442,34.71338],[-83.48985,34.69059],[-83.45105,34.70765],[-83.42765,34.67595],[-83.43451,34.66116],[-83.45559,34.6415],[-83.48081,34.63168],[-83.4832,34.61963],[-83.49708,34.61077],[-83.48052,34.58703],[-83.45048,34.59694],[-83.42409,34.58176],[-83.43877,34.58114],[-83.47353,34.55799],[-83.46445,34.54544],[-83.46679,34.53572],[-83.51615,34.51344],[-83.51698,34.50423],[-83.52934,34.50109],[-83.52452,34.49153],[-83.52992,34.4829],[-83.51814,34.47601],[-83.51623,34.45044],[-83.5019,34.42824],[-83.48774,34.42053],[-83.47237,34.42911],[-83.44107,34.4215],[-83.39249,34.4633],[-83.33665,34.47345],[-83.35395,34.49745],[-83.3535,34.53032],[-83.36644,34.5364],[-83.34607,34.56697],[-83.34382,34.58928],[-83.32423,34.59305],[-83.30918,34.57804],[-83.2382,34.61577],[-83.25474,34.6372],[-83.29127,34.65304],[-83.30502,34.66991],[-83.34096,34.67949],[-83.34028,34.69143],[-83.35386,34.69811],[-83.34672,34.70393],[-83.35318,34.71982],[-83.34945,34.73631],[-83.31879,34.75769],[-83.32405,34.78957],[-83.30094,34.80438],[-83.30304,34.81893],[-83.29578,34.81313],[-83.28929,34.82468],[-83.27579,34.8167],[-83.26866,34.82072],[-83.26809,34.84716],[-83.24882,34.8454],[-83.25395,34.84897],[-83.24824,34.86559],[-83.23482,34.87086],[-83.24271,34.87786],[-83.22003,34.87807],[-83.21424,34.8886],[-83.20551,34.88013],[-83.2036,34.89349],[-83.19726,34.8908],[-83.16878,34.91928],[-83.1572,34.91498],[-83.15681,34.93089],[-83.14166,34.92452],[-83.12748,34.93863],[-83.11188,34.93493],[-83.1271,34.95426],[-83.11418,34.95019],[-83.12212,34.96459],[-83.10078,34.98995]]],[[[-83.64969,33.06808],[-83.66412,33.07663],[-83.73483,33.04212],[-83.72245,33.0198],[-83.70868,33.01396],[-83.69989,33.02982],[-83.71317,33.04119],[-83.70325,33.04925],[-83.68985,33.04424],[-83.68238,33.04952],[-83.67291,33.0412],[-83.67468,33.0504],[-83.65793,33.05286],[-83.64455,33.06375],[-83.64969,33.06808]]],[[[-83.38454,33.36862],[-83.36777,33.40575],[-83.37106,33.42783],[-83.38687,33.43749],[-83.47797,33.37302],[-83.49016,33.38103],[-83.49923,33.37357],[-83.53797,33.3934],[-83.54532,33.38729],[-83.53724,33.38171],[-83.53858,33.3602],[-83.54685,33.36566],[-83.55671,33.35763],[-83.53931,33.35408],[-83.54,33.31227],[-83.57359,33.3046],[-83.5634,33.30368],[-83.54536,33.28189],[-83.56573,33.25371],[-83.55487,33.24286],[-83.59063,33.23724],[-83.59022,33.22423],[-83.61569,33.19479],[-83.64282,33.1836],[-83.67388,33.22545],[-83.68047,33.24361],[-83.67523,33.25254],[-83.68552,33.26052],[-83.7026,33.25668],[-83.70208,33.27389],[-83.7214,33.30029],[-83.75252,33.31566],[-83.79204,33.3169],[-83.85879,33.30167],[-83.88532,33.28634],[-83.83847,33.24204],[-83.84417,33.20365],[-83.83056,33.19299],[-83.83533,33.18788],[-83.85047,33.19529],[-83.8385,33.15149],[-83.82369,33.15938],[-83.81417,33.14859],[-83.81728,33.14087],[-83.79884,33.15551],[-83.78013,33.15328],[-83.76941,33.16288],[-83.76255,33.15632],[-83.72404,33.16941],[-83.71329,33.15995],[-83.69698,33.16954],[-83.66737,33.15457],[-83.64069,33.15863],[-83.6349,33.14104],[-83.62265,33.1508],[-83.60234,33.13307],[-83.60936,33.12752],[-83.5993,33.11845],[-83.61495,33.11094],[-83.61635,33.10211],[-83.60898,33.08183],[-83.56686,33.10071],[-83.5603,33.1071],[-83.57445,33.11982],[-83.57346,33.12905],[-83.5551,33.13342],[-83.51379,33.11464],[-83.52703,33.1032],[-83.51199,33.09344],[-83.51402,33.08013],[-83.53764,33.0651],[-83.52814,33.05661],[-83.49601,33.08664],[-83.48395,33.08674],[-83.48667,33.09986],[-83.47455,33.12714],[-83.45941,33.15164],[-83.44363,33.16135],[-83.43707,33.18628],[-83.41284,33.17863],[-83.40639,33.1838],[-83.42013,33.19619],[-83.38076,33.20267],[-83.40698,33.22371],[-83.40667,33.25268],[-83.41613,33.25013],[-83.41754,33.26707],[-83.42946,33.27209],[-83.43514,33.29154],[-83.42856,33.29962],[-83.43875,33.3028],[-83.43296,33.33163],[-83.38454,33.36862]]],[[[-83.23918,33.80443],[-83.25635,33.7988],[-83.24655,33.7927],[-83.2473,33.77981],[-83.26089,33.77564],[-83.2713,33.78494],[-83.28292,33.77905],[-83.28058,33.7598],[-83.29742,33.73901],[-83.29132,33.73436],[-83.31562,33.73254],[-83.31695,33.72631],[-83.39488,33.70191],[-83.39895,33.70933],[-83.40626,33.69846],[-83.36929,33.65417],[-83.35937,33.6221],[-83.34959,33.61404],[-83.34894,33.59737],[-83.33778,33.59731],[-83.30849,33.56461],[-83.31728,33.54616],[-83.29462,33.55143],[-83.28088,33.54283],[-83.2638,33.55063],[-83.26598,33.55663],[-83.24792,33.56919],[-83.22621,33.57173],[-83.20986,33.59627],[-83.16745,33.62477],[-83.16842,33.63451],[-83.14226,33.6367],[-83.13904,33.64846],[-83.11974,33.64604],[-83.12983,33.66219],[-83.14452,33.65588],[-83.15195,33.66449],[-83.17789,33.66386],[-83.17344,33.69785],[-83.15107,33.70359],[-83.15344,33.71244],[-83.18128,33.72328],[-83.18396,33.7365],[-83.18764,33.72576],[-83.24634,33.74845],[-83.23996,33.74972],[-83.24499,33.76544],[-83.23918,33.76663],[-83.23642,33.79198],[-83.22319,33.79664],[-83.23918,33.80443]]],[[[-85.08889,34.90469],[-85.08893,34.91238],[-85.09596,34.9057],[-85.11581,34.9142],[-85.1306,34.90657],[-85.14431,34.86382],[-85.13993,34.82105],[-85.15382,34.76403],[-85.21035,34.69004],[-85.24817,34.62387],[-85.26306,34.5571],[-85.29648,34.48073],[-85.30664,34.47953],[-85.36757,34.39997],[-85.37072,34.37203],[-85.36351,34.3642],[-85.37318,34.34812],[-85.35762,34.33234],[-85.30479,34.36661],[-85.23076,34.39139],[-85.20844,34.4294],[-85.20121,34.4315],[-85.20017,34.41398],[-85.18476,34.39597],[-85.15699,34.41238],[-85.15549,34.42674],[-85.10814,34.43828],[-85.11852,34.47624],[-85.11463,34.49255],[-85.10576,34.49231],[-85.10082,34.47645],[-85.05072,34.44913],[-85.03875,34.4544],[-85.02304,34.50009],[-85.03219,34.56216],[-85.02385,34.58539],[-85.00138,34.60287],[-84.99382,34.62244],[-84.99373,34.64736],[-85.00676,34.68221],[-84.99055,34.75931],[-85.00426,34.795],[-85.03058,34.80539],[-85.0375,34.78269],[-85.0333,34.75065],[-85.04305,34.7293],[-85.06437,34.71989],[-85.10657,34.72022],[-85.08215,34.86755],[-85.09085,34.87731],[-85.08119,34.8825],[-85.0771,34.90107],[-85.08889,34.90469]]],[[[-84.93698,34.71156],[-84.93964,34.70965],[-84.9367,34.70972],[-84.93698,34.71156]]],[[[-83.72482,34.64917],[-83.73681,34.64561],[-83.73041,34.6335],[-83.73936,34.62834],[-83.7313,34.61187],[-83.71934,34.6223],[-83.69755,34.62386],[-83.69766,34.63145],[-83.70839,34.63512],[-83.70838,34.64485],[-83.69778,34.64894],[-83.72482,34.64917]]],[[[-84.36358,34.96049],[-84.36284,34.96219],[-84.36332,34.96223],[-84.36358,34.96049]]]]},"properties":{"forestname":"Chattahoochee-Oconee National Forests","gis_acres":1796316.5708472}}]}